TRANSIT 16 [?]          
1 02807U 67048A   22242.49393837  .00000061  00000+0  79463-4 0  9999
2 02807  89.6564  33.9170 0019787 352.1570  72.4567 13.50322155720765
TRANSIT 17 [?]          
1 02965U 67092A   22242.39874003  .00000081  00000+0  10276-3 0  9999
2 02965  89.2365 117.7527 0049185 119.4434  53.8897 13.53034328708636
TRANSIT 18 [?]          
1 03133U 68012A   22242.38092775  .00000049  00000+0  59654-4 0  9995
2 03133  90.0021 271.6288 0076527  48.3389  15.3121 13.51159961407072
NNSS 19 [?]             
1 04507U 70067A   22242.48473385  .00000060  00000+0  69469-4 0  9993
2 04507  89.9208 238.7627 0172712 169.0629 191.4355 13.50836258560158
NNSS O-20 [?]           
1 06909U 73081A   22242.13916956  .00000100  00000+0  91076-4 0  9992
2 06909  89.8151 276.0604 0158540  76.5682 285.3096 13.70691308639100
TRANSAT [?]             
1 10457U 77106A   22242.44426403  .00000066  00000+0  88707-4 0  9992
2 10457  89.6792 120.1483 0026870  55.8482 117.6384 13.48685271205635
NOVA I [?]              
1 12458U 81044A   22242.36525516  .00000069  00000+0  14344-3 0  9995
2 12458  89.8837 106.8807 0014522 167.1910   7.8663 13.23070103993117
NOVA 3 [?]              
1 15362U 84110A   22242.45979477  .00000035  00000+0  63734-4 0  9999
2 15362  90.0945  67.6677 0033074  40.9543  17.0204 13.22837831828298
OSCAR 30 [?]            
1 15935U 85066A   22242.48294715  .00000051  00000+0  79073-4 0  9995
2 15935  90.1728  79.1978 0167379 229.2594 192.5541 13.35762116804283
OSCAR 24 [?]            
1 15936U 85066B   22242.49121696  .00000046  00000+0  70875-4 0  9999
2 15936  90.1687  71.1438 0167811 235.0102 187.6208 13.35622424806208
POLAR BEAR [?]          
1 17070U 86088A   22242.45717109  .00000054  00000+0  44261-4 0  9990
2 17070  89.5626 234.2089 0040496 138.0098  14.3856 13.74876102794841
OSCAR 27 [?]            
1 18361U 87080A   22242.48725524  .00000054  00000+0  75071-4 0  9993
2 18361  90.3321  36.6776 0106019  62.1215 299.0624 13.44570775714263
OSCAR 29 [?]            
1 18362U 87080B   22242.48241830  .00000082  00000+0  12165-3 0  9992
2 18362  90.3333  37.0118 0107967  82.2171 340.5215 13.44159209713845
OSCAR 23 [?]            
1 19070U 88033A   22242.34039880  .00000091  00000+0  17099-3 0  9994
2 19070  90.3361 339.1372 0187992 278.2974 149.1136 13.27526808663253
OSCAR 32 [?]            
1 19071U 88033B   22242.53746757  .00000072  00000+0  13403-3 0  9998
2 19071  90.3362 339.2306 0186312 265.4946 104.5636 13.27706592663389
NOVA 11 [?]             
1 19223U 88052A   22242.45070943  .00000056  00000+0  11146-3 0  9990
2 19223  89.9698  80.6861 0032454  82.0302 341.8685 13.22749445650793
OSCAR 25 [?]            
1 19419U 88074A   22242.44434632  .00000041  00000+0  52908-4 0  9995
2 19419  90.0084  17.9182 0098094  70.5201 355.4386 13.42300909665361
OSCAR 31 [?]            
1 19420U 88074B   22242.38084229  .00000037  00000+0  47390-4 0  9997
2 19420  90.0094  18.1018 0096177  64.9491 348.7294 13.42311456665466
